start=new Date('2021-11-07T00:00:00.000Z').valueOf();
sats=[{"BSTAR":"0.00049484000000","OBJECT_NAME":"STARLINK-1034","SEMIMAJOR_AXIS":"6920.483","ELEMENT_SET_NO":"999","PERIAPSIS":"541.099","MEAN_ELEMENT_THEORY":"SGP4","REV_AT_EPOCH":"10969","COUNTRY_CODE":"US","FILE":"3206165","CENTER_NAME":"EARTH","MEAN_MOTION_DOT":"0.00007418","TLE_LINE2":"2 44739  52.9973 115.8570 0001804  92.0306 268.0890 15.07989005109696","RA_OF_ASC_NODE":"115.8570","EPHEMERIS_TYPE":"0","OBJECT_TYPE":"PAYLOAD","INCLINATION":"52.9973","MEAN_MOTION":"15.07989005","GP_ID":"189128075","RCS_SIZE":"LARGE","NORAD_CAT_ID":"44739","MEAN_ANOMALY":"268.0890","PERIOD":"95.491","DECAY_DATE":null,"LAUNCH_DATE":"2019-11-11","REF_FRAME":"TEME","OBJECT_ID":"2019-074AC","MEAN_MOTION_DDOT":"0.0000000000000","SITE":"AFETR","TIME_SYSTEM":"UTC","EPOCH":"2021-11-06T10:33:42.301152","TLE_LINE1":"1 44739U 19074AC  21310.44007293  .00007418  00000-0  49484-3 0  9996","ECCENTRICITY":"0.00018040","APOAPSIS":"543.596","ARG_OF_PERICENTER":"92.0306","CLASSIFICATION_TYPE":"U"},{"SITE":"AFETR","EPOCH":"2021-11-06T17:41:20.854752","TIME_SYSTEM":"UTC","ECCENTRICITY":"0.00018680","TLE_LINE1":"1 44740U 19074AD  21310.73704693  .00001293  00000-0  10572-3 0  9999","APOAPSIS":"548.509","CLASSIFICATION_TYPE":"U","ARG_OF_PERICENTER":"93.7441","DECAY_DATE":null,"LAUNCH_DATE":"2019-11-11","REF_FRAME":"TEME","PERIOD":"95.592","MEAN_ANOMALY":"266.3761","OBJECT_ID":"2019-074AD","MEAN_MOTION_DDOT":"0.0000000000000","OBJECT_TYPE":"PAYLOAD","INCLINATION":"53.0540","MEAN_MOTION":"15.06399466","GP_ID":"189101634","RCS_SIZE":"LARGE","NORAD_CAT_ID":"44740","BSTAR":"0.00010572000000","SEMIMAJOR_AXIS":"6925.350","ELEMENT_SET_NO":"999","OBJECT_NAME":"STARLINK-1035","MEAN_ELEMENT_THEORY":"SGP4","PERIAPSIS":"545.922","FILE":"3205818","COUNTRY_CODE":"US","REV_AT_EPOCH":"10990","MEAN_MOTION_DOT":"0.00001293","TLE_LINE2":"2 44740  53.0540 117.2562 0001868  93.7441 266.3761 15.06399466109902","CENTER_NAME":"EARTH","RA_OF_ASC_NODE":"117.2562","EPHEMERIS_TYPE":"0"},{"CENTER_NAME":"EARTH","MEAN_MOTION_DOT":"-0.00001201","TLE_LINE2":"2 44741  53.0526 117.2097 0001580  90.9958 269.1212 15.06395693109903","EPHEMERIS_TYPE":"0","RA_OF_ASC_NODE":"117.2097","PERIAPSIS":"546.133","MEAN_ELEMENT_THEORY":"SGP4","COUNTRY_CODE":"US","REV_AT_EPOCH":"10990","FILE":"3205819","OBJECT_NAME":"STARLINK-1036","SEMIMAJOR_AXIS":"6925.362","ELEMENT_SET_NO":"999","BSTAR":"-0.00006173900000","GP_ID":"189101648","RCS_SIZE":"LARGE","NORAD_CAT_ID":"44741","MEAN_MOTION":"15.06395693","OBJECT_TYPE":"PAYLOAD","INCLINATION":"53.0526","MEAN_MOTION_DDOT":"0.0000000000000","OBJECT_ID":"2019-074AE","MEAN_ANOMALY":"269.1212","LAUNCH_DATE":"2019-11-11","DECAY_DATE":null,"REF_FRAME":"TEME","PERIOD":"95.592","ARG_OF_PERICENTER":"90.9958","CLASSIFICATION_TYPE":"U","TLE_LINE1":"1 44741U 19074AE  21310.74810796 -.00001201  00000-0 -61739-4 0  9996","ECCENTRICITY":"0.00015800","APOAPSIS":"548.321","SITE":"AFETR","EPOCH":"2021-11-06T17:57:16.527744","TIME_SYSTEM":"UTC"},{"MEAN_MOTION_DDOT":"0.0000000000000","OBJECT_ID":"2019-074AF","MEAN_ANOMALY":"246.4721","REF_FRAME":"TEME","DECAY_DATE":null,"LAUNCH_DATE":"2019-11-11","PERIOD":"95.421","ARG_OF_PERICENTER":"113.6518","CLASSIFICATION_TYPE":"U","APOAPSIS":"540.580","TLE_LINE1":"1 44742U 19074AF  21310.54117264  .00008092  00000-0  52213-3 0  9994","ECCENTRICITY":"0.00023790","EPOCH":"2021-11-06T12:59:17.316096","TIME_SYSTEM":"UTC","SITE":"AFETR","RA_OF_ASC_NODE":"111.8317","EPHEMERIS_TYPE":"0","CENTER_NAME":"EARTH","MEAN_MOTION_DOT":"0.00008092","TLE_LINE2":"2 44742  52.9965 111.8317 0002379 113.6518 246.4721 15.09105361109767","REV_AT_EPOCH":"10976","COUNTRY_CODE":"US","FILE":"3206165","PERIAPSIS":"537.289","MEAN_ELEMENT_THEORY":"SGP4","OBJECT_NAME":"STARLINK-1037","ELEMENT_SET_NO":"999","SEMIMAJOR_AXIS":"6917.069","BSTAR":"0.00052213000000","RCS_SIZE":"LARGE","NORAD_CAT_ID":"44742","GP_ID":"189128325","MEAN_MOTION":"15.09105361","INCLINATION":"52.9965","OBJECT_TYPE":"PAYLOAD"},{"GP_ID":"189128575","NORAD_CAT_ID":"44743","RCS_SIZE":"LARGE","OBJECT_TYPE":"PAYLOAD","INCLINATION":"53.0508","MEAN_MOTION":"15.06396990","PERIAPSIS":"546.011","MEAN_ELEMENT_THEORY":"SGP4","REV_AT_EPOCH":"10951","COUNTRY_CODE":"US","FILE":"3206165","CENTER_NAME":"EARTH","TLE_LINE2":"2 44743  53.0508 138.1800 0001750  86.3859 273.7331 15.06396990109518","MEAN_MOTION_DOT":"0.00003331","RA_OF_ASC_NODE":"138.1800","EPHEMERIS_TYPE":"0","BSTAR":"0.00024246000000","OBJECT_NAME":"STARLINK-1038","SEMIMAJOR_AXIS":"6925.358","ELEMENT_SET_NO":"999","ARG_OF_PERICENTER":"86.3859","CLASSIFICATION_TYPE":"U","SITE":"AFETR","TIME_SYSTEM":"UTC","EPOCH":"2021-11-06T12:46:47.462592","TLE_LINE1":"1 44743U 19074AG  21310.53249378  .00003331  00000-0  24246-3 0  9992","ECCENTRICITY":"0.00017500","APOAPSIS":"548.435","OBJECT_ID":"2019-074AG","MEAN_MOTION_DDOT":"0.0000000000000","MEAN_ANOMALY":"273.7331","PERIOD":"95.592","DECAY_DATE":null,"LAUNCH_DATE":"2019-11-11","REF_FRAME":"TEME"},{"MEAN_ANOMALY":"277.7759","DECAY_DATE":null,"LAUNCH_DATE":"2019-11-11","REF_FRAME":"TEME","PERIOD":"95.592","MEAN_MOTION_DDOT":"0.0000000000000","OBJECT_ID":"2019-074AH","APOAPSIS":"548.488","TLE_LINE1":"1 44744U 19074AH  21310.54354184  .00002260  00000-0  17056-3 0  9997","ECCENTRICITY":"0.00018340","TIME_SYSTEM":"UTC","EPOCH":"2021-11-06T13:02:42.014976","SITE":"AFETR","CLASSIFICATION_TYPE":"U","ARG_OF_PERICENTER":"82.3438","OBJECT_NAME":"STARLINK-1039","SEMIMAJOR_AXIS":"6925.353","ELEMENT_SET_NO":"999","BSTAR":"0.00017056000000","EPHEMERIS_TYPE":"0","RA_OF_ASC_NODE":"138.1299","CENTER_NAME":"EARTH","MEAN_MOTION_DOT":"0.00002260","TLE_LINE2":"2 44744  53.0521 138.1299 0001834  82.3438 277.7759 15.06398435109422","REV_AT_EPOCH":"10942","COUNTRY_CODE":"US","FILE":"3206165","PERIAPSIS":"545.948","MEAN_ELEMENT_THEORY":"SGP4","MEAN_MOTION":"15.06398435","INCLINATION":"53.0521","OBJECT_TYPE":"PAYLOAD","RCS_SIZE":"LARGE","NORAD_CAT_ID":"44744","GP_ID":"189128827"},{"TIME_SYSTEM":"UTC","EPOCH":"2021-11-06T12:41:27.303936","SITE":"AFETR","APOAPSIS":"548.394","TLE_LINE1":"1 44746U 19074AK  21310.52878824  .00003332  00000-0  24247-3 0  9990","ECCENTRICITY":"0.00017360","CLASSIFICATION_TYPE":"U","ARG_OF_PERICENTER":"79.2584","MEAN_ANOMALY":"280.8600","DECAY_DATE":null,"LAUNCH_DATE":"2019-11-11","REF_FRAME":"TEME","PERIOD":"95.592","OBJECT_ID":"2019-074AK","MEAN_MOTION_DDOT":"0.0000000000000","INCLINATION":"53.0531","OBJECT_TYPE":"PAYLOAD","MEAN_MOTION":"15.06406967","RCS_SIZE":"LARGE","NORAD_CAT_ID":"44746","GP_ID":"189129577","BSTAR":"0.00024247000000","OBJECT_NAME":"STARLINK-1041","SEMIMAJOR_AXIS":"6925.327","ELEMENT_SET_NO":"999","COUNTRY_CODE":"US","REV_AT_EPOCH":"10942","FILE":"3206165","PERIAPSIS":"545.990","MEAN_ELEMENT_THEORY":"SGP4","EPHEMERIS_TYPE":"0","RA_OF_ASC_NODE":"138.1810","CENTER_NAME":"EARTH","TLE_LINE2":"2 44746  53.0531 138.1810 0001736  79.2584 280.8600 15.06406967109422","MEAN_MOTION_DOT":"0.00003332"},{"CLASSIFICATION_TYPE":"U","ARG_OF_PERICENTER":"95.0475","APOAPSIS":"548.259","ECCENTRICITY":"0.00014500","TLE_LINE1":"1 44747U 19074AL  21310.82367401 -.00002220  00000-0 -13026-3 0  9998","TIME_SYSTEM":"UTC","EPOCH":"2021-11-06T19:46:05.434464","SITE":"AFETR","MEAN_MOTION_DDOT":"0.0000000000000","OBJECT_ID":"2019-074AL","REF_FRAME":"TEME","DECAY_DATE":null,"LAUNCH_DATE":"2019-11-11","PERIOD":"95.593","MEAN_ANOMALY":"265.0679","NORAD_CAT_ID":"44747","RCS_SIZE":"LARGE","GP_ID":"189102150","MEAN_MOTION":"15.06386671","INCLINATION":"53.0524","OBJECT_TYPE":"PAYLOAD","RA_OF_ASC_NODE":"136.8732","EPHEMERIS_TYPE":"0","TLE_LINE2":"2 44747  53.0524 136.8732 0001450  95.0475 265.0679 15.06386671109645","MEAN_MOTION_DOT":"-0.00002220","CENTER_NAME":"EARTH","FILE":"3205841","COUNTRY_CODE":"US","REV_AT_EPOCH":"10964","MEAN_ELEMENT_THEORY":"SGP4","PERIAPSIS":"546.250","ELEMENT_SET_NO":"999","SEMIMAJOR_AXIS":"6925.389","OBJECT_NAME":"STARLINK-1042","BSTAR":"-0.00013026000000"},{"RCS_SIZE":"LARGE","NORAD_CAT_ID":"44748","GP_ID":"189128076","MEAN_MOTION":"15.06398020","INCLINATION":"53.0525","OBJECT_TYPE":"PAYLOAD","RA_OF_ASC_NODE":"138.2234","EPHEMERIS_TYPE":"0","CENTER_NAME":"EARTH","TLE_LINE2":"2 44748  53.0525 138.2234 0001739  79.7084 280.4101 15.06398020109423","MEAN_MOTION_DOT":"0.00002672","COUNTRY_CODE":"US","REV_AT_EPOCH":"10942","FILE":"3206165","PERIAPSIS":"546.015","MEAN_ELEMENT_THEORY":"SGP4","OBJECT_NAME":"STARLINK-1043","ELEMENT_SET_NO":"999","SEMIMAJOR_AXIS":"6925.355","BSTAR":"0.00019819000000","ARG_OF_PERICENTER":"79.7084","CLASSIFICATION_TYPE":"U","APOAPSIS":"548.424","TLE_LINE1":"1 44748U 19074AM  21310.52142976  .00002672  00000-0  19819-3 0  9999","ECCENTRICITY":"0.00017390","TIME_SYSTEM":"UTC","EPOCH":"2021-11-06T12:30:51.531264","SITE":"AFETR","MEAN_MOTION_DDOT":"0.0000000000000","OBJECT_ID":"2019-074AM","MEAN_ANOMALY":"280.4101","DECAY_DATE":null,"LAUNCH_DATE":"2019-11-11","REF_FRAME":"TEME","PERIOD":"95.592"},{"OBJECT_ID":"2019-074AQ","MEAN_MOTION_DDOT":"0.0000000000000","MEAN_ANOMALY":"274.0623","REF_FRAME":"TEME","DECAY_DATE":null,"LAUNCH_DATE":"2019-11-11","PERIOD":"95.594","ARG_OF_PERICENTER":"86.0536","CLASSIFICATION_TYPE":"U","EPOCH":"2021-11-06T19:14:13.465536","TIME_SYSTEM":"UTC","SITE":"AFETR","APOAPSIS":"548.319","TLE_LINE1":"1 44751U 19074AQ  21310.80154474 -.00003998  00000-0 -24980-3 0  9999","ECCENTRICITY":"0.00014950","REV_AT_EPOCH":"10963","COUNTRY_CODE":"US","FILE":"3205822","PERIAPSIS":"546.248","MEAN_ELEMENT_THEORY":"SGP4","EPHEMERIS_TYPE":"0","RA_OF_ASC_NODE":"136.9788","CENTER_NAME":"EARTH","TLE_LINE2":"2 44751  53.0549 136.9788 0001495  86.0536 274.0623 15.06377153109639","MEAN_MOTION_DOT":"-0.00003998","BSTAR":"-0.00024980000000","OBJECT_NAME":"STARLINK-1046","ELEMENT_SET_NO":"999","SEMIMAJOR_AXIS":"6925.419","RCS_SIZE":"LARGE","NORAD_CAT_ID":"44751","GP_ID":"189101685","INCLINATION":"53.0549","OBJECT_TYPE":"PAYLOAD","MEAN_MOTION":"15.06377153"}];
